ISS (ZARYA)             
1 25544U 98067A   26056.18628621  .00010179  00000+0  19739-3 0  9992
2 25544  51.6318 134.1640 0008356 131.0189 229.1523 15.48279367554392
CSS (TIANHE)            
1 48274U 21035A   26056.10668366  .00013576  00000+0  16634-3 0  9995
2 48274  41.4666 284.6914 0005593 191.4381 168.6331 15.60088863275644
ISS (NAUKA)             
1 49044U 21066A   26056.18628621  .00010179  00000+0  19739-3 0  9998
2 49044  51.6318 134.1640 0008356 131.0189 229.1523 15.48279367230440
FREGAT DEB              
1 49271U 11037PF  26055.13832825  .00030636  00000+0  46705-1 0  9995
2 49271  51.6512 341.3641 0948507  28.2793 336.6367 12.39303842211015
CSS (WENTIAN)           
1 53239U 22085A   26056.10668366  .00013576  00000+0  16634-3 0  9998
2 53239  41.4666 284.6914 0005593 191.4381 168.6331 15.60088863173840
CSS (MENGTIAN)          
1 54216U 22143A   26056.10668366  .00013576  00000+0  16634-3 0  9999
2 54216  41.4666 284.6914 0005593 191.4381 168.6331 15.60088863158647
PROGRESS-MS 31          
1 64751U 25146A   26056.18628621  .00010179  00000+0  19739-3 0  9993
2 64751  51.6318 134.1640 0008356 131.0189 229.1523 15.48279367  6757
TIANZHOU-9              
1 64786U 25149A   26056.10668366  .00013576  00000+0  16634-3 0  9991
2 64786  41.4666 284.6914 0005593 191.4381 168.6331 15.60088863255301
DRAGON CRS-33           
1 65304U 25186A   26056.18628621  .00010179  00000+0  19739-3 0  9992
2 65304  51.6318 134.1640 0008356 131.0189 229.1523 15.48279367   116
PROGRESS-MS 32          
1 65586U 25204A   26056.18628621  .00010179  00000+0  19739-3 0  9995
2 65586  51.6318 134.1640 0008356 131.0189 229.1523 15.48279367   275
CYGNUS NG-23            
1 65616U 25208A   26056.18628621  .00010179  00000+0  19739-3 0  9993
2 65616  51.6318 134.1640 0008356 131.0189 229.1523 15.48279367   224
ISS OBJECT XK           
1 65731U 98067XK  26056.18948281  .00446293  92493-4  10396-2 0  9992
2 65731  51.6188 113.0692 0007653  17.0025 343.1238 15.96432471 24890
